NOAA 1 [-]              
1 04793U 70106A   22348.71527595 -.00000037  00000+0  39856-4 0  9992
2 04793 101.5338  47.8199 0031303 331.6551 145.6755 12.54009875380182
NOAA 2 (ITOS-D) [-]     
1 06235U 72082A   22348.74947338 -.00000027  00000+0  11981-3 0  9991
2 06235 101.9748 332.2392 0004207  88.9778  84.7936 12.53154733294558
NOAA 3 [-]              
1 06920U 73086A   22349.20449920 -.00000027  00000+0  14478-3 0  9997
2 06920 102.2295 331.4108 0006604 319.3939  51.1586 12.40351041223388
NOAA 4 [-]              
1 07529U 74089A   22348.72749694 -.00000024  00000+0  13699-3 0  9995
2 07529 101.9367 329.0359 0009064 118.0186  54.9585 12.53163270199125
NOAA 5 [-]              
1 09057U 76077A   22348.65868230 -.00000025  00000+0  15325-3 0  9991
2 09057 102.1273 314.8908 0009529 165.9789   7.3320 12.37777267 96034
TIROS N [-]             
1 11060U 78096A   22349.56665252  .00000155  00000+0  95881-4 0  9990
2 11060  98.6121  38.2924 0010177 347.6565  12.4360 14.18449624497523
NOAA 6 [-]              
1 11416U 79057A   22348.79576833  .00000273  00000+0  11401-3 0  9999
2 11416  98.6604 359.9135 0011417  86.9864 273.2626 14.33853466267363
NOAA 7 [-]              
1 12553U 81059A   22349.58603531  .00000057  00000+0  50963-4 0  9998
2 12553  98.9756  36.0347 0010845 324.6920  35.3535 14.17361376143673
NOAA 8 [-]              
1 13923U 83022A   22348.74588482  .00000150  00000+0  76944-4 0  9997
2 13923  98.7012 338.7221 0015828  45.1821 315.0645 14.28865500 68151
NOAA 9 [-]              
1 15427U 84123A   22349.53510222  .00000154  00000+0  10075-3 0  9992
2 15427  99.0695 324.9727 0015164  15.9533  92.0381 14.16255191962472
NOAA 10 [-]             
1 16969U 86073A   22348.99024736  .00000147  00000+0  76259-4 0  9998
2 16969  98.5866 331.9874 0012821 139.6151 288.7373 14.28253707886863
NOAA 11 [-]             
1 19531U 88089A   22348.54460537  .00000068  00000+0  55917-4 0  9999
2 19531  98.4439 327.8973 0011644  25.2379 334.9362 14.15339474766540
NOAA 12 [-]             
1 21263U 91032A   22348.81789760  .00000092  00000+0  56197-4 0  9996
2 21263  98.5230 343.6636 0013846 167.1046 193.0491 14.26035411642434
NOAA 13 [-]             
1 22739U 93050A   22348.67848759  .00000101  00000+0  76336-4 0  9993
2 22739  98.5288 319.6939 0009341 181.2725 178.8426 14.12889139512503
NOAA 14 [-]             
1 23455U 94089A   22348.82793708  .00000035  00000+0  39882-4 0  9993
2 23455  98.4356   5.6704 0009839 159.6391 200.5177 14.14224155442204
NOAA 15 [B]             
1 25338U 98030A   22349.49663957  .00000161  00000+0  85242-4 0  9992
2 25338  98.6269  16.5138 0011243 126.7258 233.4957 14.26208058279073
NOAA 16 [-]             
1 26536U 00055A   22348.85077887  .00000069  00000+0  59348-4 0  9998
2 26536  98.6131  41.3139 0010698  16.5117 343.6403 14.13365463442838
NOAA 17 [-]             
1 27453U 02032A   22349.28875070  .00000177  00000+0  93884-4 0  9995
2 27453  98.6945 292.6105 0012863 104.5384 255.7223 14.25176848 64624
NOAA 18 [B]             
1 28654U 05018A   22349.51013292  .00000197  00000+0  13012-3 0  9998
2 28654  98.9318  59.6411 0014460 176.2108 183.9176 14.12822134905637
NOAA 19 [+]             
1 33591U 09005A   22349.60303269  .00000197  00000+0  13096-3 0  9992
2 33591  99.1272  27.3649 0014458  42.4200 317.8086 14.12651437714029
SUOMI NPP [+]           
1 37849U 11061A   22349.42600691  .00000102  00000+0  69375-4 0  9994
2 37849  98.7515 285.5946 0001269  96.2390  14.0382 14.19525885576862
NOAA 20 [+]             
1 43013U 17073A   22349.57978158  .00000107  00000+0  71441-4 0  9997
2 43013  98.7353 285.4248 0000585 103.4921 256.6320 14.19535938262922
